NORAD_CAT_ID,OBJECT_NAME,OBJECT_TYPE,EPOCH,MEAN_MOTION,ECCENTRICITY,INCLINATION,RA_OF_ASC_NODE,ARG_OF_PERICENTER,MEAN_ANOMALY,BSTAR,MEAN_MOTION_DOT,MEAN_MOTION_DDOT,TLE_LINE0,TLE_LINE1,TLE_LINE2,SEMIMAJOR_AXIS,PERIOD,APOGEE,PERIGEE,DECAYED
54095.0,STARLINK-5193,PAYLOAD,2023-02-11 19:32:40,15.08874847,0.0001458,53.2197,330.0858,75.6141,284.5013,0.0018055,0.00028591,0.0,0 STARLINK-5193,1 54095U 22136AW  23042.81436290  .00028591  00000-0  18055-2 0  9997,2 54095  53.2197 330.0858 0001458  75.6141 284.5013 15.08874847 18094,6917.774,95.435,540.647,538.63,0.0
54095.0,STARLINK-5193,PAYLOAD,2023-02-12 05:04:59,15.08882239,0.0001111,53.2186,328.2996,48.5909,311.5178,0.0028274,0.0004505,0.0,0 STARLINK-5193,1 54095U 22136AW  23043.21179751  .00045050  00000-0  28274-2 0  9991,2 54095  53.2186 328.2996 0001111  48.5909 311.5178 15.08882239 18155,6917.751,95.435,540.385,538.848,0.0
54095.0,STARLINK-5193,PAYLOAD,2023-02-12 11:26:32,15.08847549,0.0001826,53.2189,327.1099,75.2321,284.8874,0.0010811,0.00016963,0.0,0 STARLINK-5193,1 54095U 22136AW  23043.47676581  .00016963  00000-0  10811-2 0  9991,2 54095  53.2189 327.1099 0001826  75.2321 284.8874 15.08847549 18192,6917.857,95.437,540.986,538.459,0.0
54095.0,STARLINK-5193,PAYLOAD,2023-02-13 04:55:48,15.08825073,0.000129,53.2177,323.8395,82.9379,277.176,0.0011262,0.00017674,0.0,0 STARLINK-5193,1 54095U 22136AW  23044.20541707  .00017674  00000-0  11262-2 0  9995,2 54095  53.2177 323.8395 0001290  82.9379 277.1760 15.08825073 18304,6917.926,95.438,540.683,538.899,0.0
54095.0,STARLINK-5193,PAYLOAD,2023-02-13 11:17:20,15.08833957,0.0001312,53.2199,322.6491,75.2314,284.8824,0.00089235,0.0001394,0.0,0 STARLINK-5193,1 54095U 22136AW  23044.47037835  .00013940  00000-0  89235-3 0  9994,2 54095  53.2199 322.6491 0001312  75.2314 284.8824 15.08833957 17878,6917.899,95.438,540.671,538.856,0.0
54095.0,STARLINK-5193,PAYLOAD,2023-02-13 19:14:16,15.08831517,0.0001511,53.2187,321.1631,96.4586,263.6579,0.00061792,9.558e-05,0.0,0 STARLINK-5193,1 54095U 22136AW  23044.80158227  .00009558  00000-0  61792-3 0  9998,2 54095  53.2187 321.1631 0001511  96.4586 263.6579 15.08831517 18392,6917.906,95.438,540.817,538.726,0.0
54095.0,STARLINK-5193,PAYLOAD,2023-02-14 03:11:12,15.08851785,8.98e-05,53.2173,319.6756,80.4332,279.6761,0.00095994,0.00015027,0.0,0 STARLINK-5193,1 54095U 22136AW  23045.13277792  .00015027  00000-0  95994-3 0  9993,2 54095  53.2173 319.6756 0000898  80.4332 279.6761 15.08851785 18441,6917.844,95.437,540.331,539.088,0.0
54095.0,STARLINK-5193,PAYLOAD,2023-02-14 04:46:35,15.0885526,9.14e-05,53.2174,319.3783,79.7967,280.3128,0.0010661,0.00016727,0.0,0 STARLINK-5193,1 54095U 22136AW  23045.19901744  .00016727  00000-0  10661-2 0  9995,2 54095  53.2174 319.3783 0000914  79.7967 280.3128 15.08855260 17989,6917.834,95.437,540.331,539.066,0.0
54095.0,STARLINK-5193,PAYLOAD,2023-02-15 01:26:36,15.08850522,0.0001589,53.2183,315.5107,67.2656,292.8504,0.00074294,0.00011559,0.0,0 STARLINK-5193,1 54095U 22136AW  23046.06014247  .00011559  00000-0  74294-3 0  9996,2 54095  53.2183 315.5107 0001589  67.2656 292.8504 15.08850522 18582,6917.848,95.437,540.812,538.614,0.0
54095.0,STARLINK-5193,PAYLOAD,2023-02-15 10:58:55,15.08840349,0.0001515,53.2184,313.7287,68.9154,291.2,0.00051553,7.926e-05,0.0,0 STARLINK-5193,1 54095U 22136AW  23046.45758225  .00007926  00000-0  51553-3 0  9996,2 54095  53.2184 313.7287 0001515  68.9154 291.2000 15.08840349 18649,6917.879,95.438,540.792,538.696,0.0
54095.0,STARLINK-5193,PAYLOAD,2023-02-15 22:06:37,15.08849133,0.0001649,53.2184,311.6512,62.788,297.328,0.00049736,7.638e-05,0.0,0 STARLINK-5193,1 54095U 22136AW  23046.92126213  .00007638  00000-0  49736-3 0  9994,2 54095  53.2184 311.6512 0001649  62.7880 297.3280 15.08849133 18246,6917.852,95.437,540.858,538.577,0.0
54095.0,STARLINK-5193,PAYLOAD,2023-02-16 01:17:22,15.08866298,0.0001285,53.2183,311.0521,66.0433,294.0694,0.001052,0.00016506,0.0,0 STARLINK-5193,1 54095U 22136AW  23047.05373464  .00016506  00000-0  10520-2 0  9993,2 54095  53.2183 311.0521 0001285  66.0433 294.0694 15.08866298 18734,6917.8,95.436,540.554,538.776,0.0
54095.0,STARLINK-5193,PAYLOAD,2023-02-16 10:49:41,15.08849524,0.0001122,53.2188,309.266,84.9513,275.1608,0.0002902,4.335e-05,0.0,0 STARLINK-5193,1 54095U 22136AW  23047.45117677  .00004335  00000-0  29020-3 0  9992,2 54095  53.2188 309.2660 0001122  84.9513 275.1608 15.08849524 18794,6917.851,95.437,540.492,538.94,0.0
54095.0,STARLINK-5193,PAYLOAD,2023-02-16 21:57:24,15.0883207,0.0001529,53.2179,307.1899,77.2446,282.8717,-9.8101e-05,-1.849e-05,0.0,0 STARLINK-5193,1 54095U 22136AW  23047.91486413 -.00001849  00000-0 -98101-4 0  9996,2 54095  53.2179 307.1899 0001529  77.2446 282.8717 15.08832070 18396,6917.905,95.438,540.827,538.712,0.0
54095.0,STARLINK-5193,PAYLOAD,2023-02-16 23:32:47,15.08833961,0.0001608,53.218,306.8925,77.4974,282.6198,-1.9526e-05,-5.99e-06,0.0,0 STARLINK-5193,1 54095U 22136AW  23047.98110433 -.00000599  00000-0 -19526-4 0  9994,2 54095  53.2180 306.8925 0001608  77.4974 282.6198 15.08833961 18874,6917.899,95.438,540.876,538.651,0.0
54095.0,STARLINK-5193,PAYLOAD,2023-02-17 02:43:33,15.08845748,0.0001205,53.218,306.2933,114.0113,246.1006,0.00062298,9.642e-05,0.0,0 STARLINK-5193,1 54095U 22136AW  23048.11358018  .00009642  00000-0  62298-3 0  9992,2 54095  53.2180 306.2933 0001205 114.0113 246.1006 15.08845748 18894,6917.863,95.437,540.561,538.894,0.0
54095.0,STARLINK-5193,PAYLOAD,2023-02-17 20:12:49,15.08822602,9.05e-05,53.2176,303.0272,82.1985,277.9109,0.00025593,3.786e-05,0.0,0 STARLINK-5193,1 54095U 22136AW  23048.84223542  .00003786  00000-0  25593-3 0  9995,2 54095  53.2176 303.0272 0000905  82.1985 277.9109 15.08822602 18539,6917.934,95.439,540.425,539.172,0.0
54095.0,STARLINK-5193,PAYLOAD,2023-02-17 23:23:35,15.08830019,0.0001107,53.2186,302.4276,119.8583,240.2519,0.00045228,6.916e-05,0.0,0 STARLINK-5193,1 54095U 22136AW  23048.97471438  .00006916  00000-0  45228-3 0  9993,2 54095  53.2186 302.4276 0001107 119.8583 240.2519 15.08830019 19028,6917.911,95.438,540.542,539.01,0.0
54095.0,STARLINK-5193,PAYLOAD,2023-02-18 23:14:22,15.08857716,8.92e-05,53.2178,297.9711,91.9052,268.2043,0.00097726,0.00015307,0.0,0 STARLINK-5193,1 54095U 22136AW  23049.96831424  .00015307  00000-0  97726-3 0  9992,2 54095  53.2178 297.9711 0000892  91.9052 268.2043 15.08857716 19173,6917.826,95.436,540.308,539.074,0.0
54095.0,STARLINK-5193,PAYLOAD,2023-02-19 15:08:13,15.08858455,0.0001102,53.2187,294.9996,95.9124,264.1994,0.00034064,5.14e-05,0.0,0 STARLINK-5193,1 54095U 22136AW  23050.63070803  .00005140  00000-0  34064-3 0  9994,2 54095  53.2187 294.9996 0001102  95.9124 264.1994 15.08858455 19276,6917.824,95.436,540.451,538.927,0.0
54095.0,STARLINK-5193,PAYLOAD,2023-02-20 08:37:27,15.08848846,0.0001032,53.2177,291.7271,92.6518,267.4592,-2.4366e-06,-3.27e-06,0.0,0 STARLINK-5193,1 54095U 22136AW  23051.35934522 -.00000327  00000-0 -24366-5 0  9991,2 54095  53.2177 291.7271 0001032  92.6518 267.4592 15.08848846 19384,6917.853,95.437,540.432,539.004,0.0
54095.0,STARLINK-5193,PAYLOAD,2023-02-21 10:03:37,15.08840978,0.0001045,53.2164,286.9679,95.5969,264.5142,-5.2103e-05,-1.117e-05,0.0,0 STARLINK-5193,1 54095U 22136AW  23052.41918532 -.00001117  00000-0 -52103-4 0  9999,2 54095  53.2164 286.9679 0001045  95.5969 264.5142 15.08840978 19549,6917.877,95.437,540.465,539.019,0.0
54095.0,STARLINK-5193,PAYLOAD,2023-02-21 21:11:19,15.08850595,0.0001064,53.2166,284.8864,95.8817,264.2296,0.00010066,1.315e-05,0.0,0 STARLINK-5193,1 54095U 22136AW  23052.88285971  .00001315  00000-0  10066-3 0  9993,2 54095  53.2166 284.8864 0001064  95.8817 264.2296 15.08850595 19149,6917.848,95.437,540.449,538.977,0.0
54095.0,STARLINK-5193,PAYLOAD,2023-02-22 00:22:05,15.08856208,0.0001098,53.2162,284.2915,93.839,266.2728,0.00019685,2.848e-05,0.0,0 STARLINK-5193,1 54095U 22136AW  23053.01533682  .00002848  00000-0  19685-3 0  9992,2 54095  53.2162 284.2915 0001098  93.8390 266.2728 15.08856208 19630,6917.831,95.437,540.455,538.936,0.0
54095.0,STARLINK-5193,PAYLOAD,2023-02-22 14:40:34,15.08835503,0.0001187,53.2174,281.6148,93.5777,266.5351,-1.8929e-05,-5.89e-06,0.0,0 STARLINK-5193,1 54095U 22136AW  23053.61150683 -.00000589  00000-0 -18929-4 0  9997,2 54095  53.2174 281.6148 0001187  93.5777 266.5351 15.08835503 19255,6917.894,95.438,540.58,538.938,0.0
54095.0,STARLINK-5193,PAYLOAD,2023-02-22 16:15:57,15.08835801,0.0001167,53.2174,281.3173,96.4994,263.6131,-8.5815e-06,-4.24e-06,0.0,0 STARLINK-5193,1 54095U 22136AW  23053.67774684 -.00000424  00000-0 -85815-5 0  9993,2 54095  53.2174 281.3173 0001167  96.4994 263.6131 15.08835801 19739,6917.893,95.438,540.566,538.951,0.0
54095.0,STARLINK-5193,PAYLOAD,2023-02-23 14:31:21,15.08844527,8.83e-05,53.2158,277.1548,86.4887,273.6206,0.00027635,4.114e-05,0.0,0 STARLINK-5193,1 54095U 22136AW  23054.60510770  .00004114  00000-0  27635-3 0  9993,2 54095  53.2158 277.1548 0000883  86.4887 273.6206 15.08844527 19407,6917.867,95.437,540.342,539.121,0.0
54095.0,STARLINK-5193,PAYLOAD,2023-02-23 20:52:53,15.08852296,9.61e-05,53.2156,275.9651,75.4321,284.6778,0.00054853,8.456e-05,0.0,0 STARLINK-5193,1 54095U 22136AW  23054.87006668  .00008456  00000-0  54853-3 0  9993,2 54095  53.2156 275.9651 0000961  75.4321 284.6778 15.08852296 19446,6917.843,95.437,540.373,539.043,0.0
54095.0,STARLINK-5193,PAYLOAD,2023-02-24 00:03:39,15.08864123,0.0001096,53.2156,275.3694,71.3886,288.7225,0.0011618,0.00018263,0.0,0 STARLINK-5193,1 54095U 22136AW  23055.00254580  .00018263  00000-0  11618-2 0  9995,2 54095  53.2156 275.3694 0001096  71.3886 288.7225 15.08864123 19936,6917.807,95.436,540.43,538.913,0.0
54095.0,STARLINK-5193,PAYLOAD,2023-02-24 14:22:08,15.08844955,9.94e-05,53.2157,272.6931,73.202,286.9081,0.00015459,2.174e-05,0.0,0 STARLINK-5193,1 54095U 22136AW  23055.59870711  .00002174  00000-0  15459-3 0  9991,2 54095  53.2157 272.6931 0000994  73.2020 286.9081 15.08844955 19557,6917.865,95.437,540.418,539.043,0.0
